{
  "norad_id": 58150,
  "name": "STARLINK-30802",
  "history": [
    {
      "epoch": "2026-03-28T19:39:20.971872",
      "apogee_km": 475.9028120629173,
      "perigee_km": 474.5605112768435,
      "latitude_deg": 52.10772747729797,
      "longitude_deg": 73.62330208020285,
      "semi_major_axis_km": 6853.368661669881,
      "eccentricity": 9.793e-05,
      "inclination_deg": 53.1592,
      "raan_deg": 131.0592,
      "arg_perigee_deg": 91.5344,
      "mean_anomaly_deg": 268.5769,
      "mean_motion_rev_day": 15.30194443
    }
  ]
}